SES-6                   
1 39172U 13026A   17344.89074349 -.00000269  00000-0  00000-0 0  9995
2 39172   0.0452  65.2454 0001950 218.1827  76.5554  1.00271162 16554
